0 GOES 7 AKM
1 28520U 87022F   13280.42447412 -.00000154  00000-0  10000-3 0    51
2 28520 015.2458 002.6420 1058030 320.7670 032.1003 00.98771775 31655
0 GOES 7 AKM
1 28520U 87022F   13282.44926891 -.00000234  00000-0  10000-3 0    68
2 28520 015.2466 002.6207 1058204 320.8289 032.0377 00.98772286 31670
0 GOES 7 AKM
1 28520U 87022F   13283.46165740 -.00000274  00000-0  10000-3 0    74
2 28520 015.2472 002.6103 1058455 320.8145 032.0446 00.98772464 31687
0 GOES 7 AKM
1 28520U 87022F   13288.52365206 -.00000398  00000-0  10000-3 0    83
2 28520 015.2490 002.5570 1058356 320.9477 031.9228 00.98771940 31733
0 GOES 7 AKM
1 28520U 87022F   13290.54848905 -.00000395  00000-0  10000-3 0    98
2 28520 015.2497 002.5356 1058289 321.0056 031.8783 00.98771181 31756
0 GOES 7 AKM
1 28520U 87022F   13290.54849138  .00000000  00000-0  10000-3 0   101
2 28520 015.2488 002.5327 1059399 320.9720 031.9061 00.98766955 31756
0 GOES 7 AKM
1 28520U 87022F   13292.57333633 -.00000357  00000-0  10000-3 0   100
2 28520 015.2504 002.5143 1058324 321.0557 031.8371 00.98770240 31775
